ORBCOMM FM115           
1 41186U 15081H   25181.78147437  .00000365  00000+0  10565-3 0  9996
2 41186  46.9997 334.9016 0000658 178.6104 181.4786 14.62518990509765
ORBCOMM FM108           
1 41187U 15081J   25181.87433895  .00000490  00000+0  14182-3 0  9991
2 41187  47.0059  42.3324 0002469   7.7917 352.3006 14.58165194508790
ORBCOMM FM117           
1 41188U 15081K   25181.90913262  .00000471  00000+0  13773-3 0  9991
2 41188  47.0022  40.9258 0002938  20.6909 339.4095 14.58169920508893
ORBCOMM FM116           
1 41189U 15081L   25181.82899812  .00000220  00000+0  83838-4 0  9999
2 41189  47.0012 131.1488 0002493 239.2201 120.8439 14.58185627507648
